0 DELTA 1 R/B
1 00862U 64047B   13286.86983872  .00000190  00000-0  18708-1 0  5854
2 00862 015.7514 222.2827 7128886 067.2582 350.2539 02.05095309163444
0 DELTA 1 R/B
1 00862U 64047B   13295.21685803 -.00000267  00000-0  73107-2 0  5879
2 00862 015.7331 219.7670 7129815 071.8006 033.2597 02.05096770163617
